SENTINEL-3B             
1 43437U 18039A   25125.80507069  .00000197  00000+0  99380-4 0  9991
2 43437  98.6315 194.1022 0001429  78.3491 281.7849 14.26731896366036
GAOFEN-5 01             
1 43461U 18043A   25125.87040246  .00000691  00000+0  15361-3 0  9994
2 43461  98.4028  85.4645 0000443 246.3619 113.7534 14.60127311372243
GAOFEN-6                
1 43484U 18048A   25126.21013174  .00001247  00000+0  18534-3 0  9996
2 43484  97.8243 197.5080 0013810  52.3056 307.9405 14.76615945373337
GAOFEN-11 01            
1 43585U 18063A   25126.17575963  .00015131  00000+0  34613-3 0  9992
2 43585  97.1819 191.6694 0006962  42.1718 318.0065 15.42878408377359
ICESAT-2                
1 43613U 18070A   25125.87649446  .00015579  00000+0  56505-3 0  9996
2 43613  91.9919 181.4130 0003864  11.3464 348.7871 15.28290670370250
HYSIS                   
1 43719U 18096A   25126.17090901  .00001861  54900-9  25451-3 0  9994
2 43719  98.0326 189.8456 0001234  78.8458 281.2891 14.78636040347335
KAZSTSAT                
1 43783U 18099AB  25126.10581847  .00001394  00000+0  12088-3 0  9990
2 43783  97.4770 170.5254 0006805 341.4180  18.6793 14.98608668350317
SAUDISAT 5A             
1 43831U 18102A   25126.17153413  .00006870  00000+0  29706-3 0  9999
2 43831  97.3601 190.7263 0012431 126.7655 233.4725 15.22705063353635
SAUDISAT 5B             
1 43833U 18102C   25126.15580904  .00006584  00000+0  28095-3 0  9990
2 43833  97.3677 193.0654 0013080 129.7474 230.4918 15.23163257353739
GAOFEN-10R              
1 44622U 19066A   25126.18921599  .00002240  00000+0  28514-3 0  9990
2 44622  98.0020  73.2638 0006618  37.2655 322.9016 14.82559887302068
CARTOSAT-3              
1 44804U 19081A   25126.18148575  .00006494  00000+0  31081-3 0  9992
2 44804  97.4834 188.1137 0015365 133.5027 226.7488 15.19204690301623
GAOFEN-12 01            
1 44819U 19082A   25126.20822032  .00000752  00000+0  10525-3 0  9990
2 44819  97.8149 138.2378 0001297 224.0266 136.0844 14.80361207293876
CSG-1                   
1 44873U 19092A   25126.16545072  .00000916  00000+0  12163-3 0  9994
2 44873  97.8877 310.6748 0001471  84.0903 276.0478 14.82164838291180
NEMO-HD                 
1 46277U 20061F   25126.19889474  .00011244  00000+0  32838-3 0  9999
2 46277  97.2472 188.5442 0002850  89.9561 270.2010 15.35470090259354
