[
  {
    "OBJECT_NAME": "SENTINEL-3B",
    "OBJECT_ID": "2018-039A",
    "EPOCH": "2025-05-05T19:19:18.107616",
    "MEAN_MOTION": 14.26731896,
    "ECCENTRICITY": 0.0001429,
    "INCLINATION": 98.6315,
    "RA_OF_ASC_NODE": 194.1022,
    "ARG_OF_PERICENTER": 78.3491,
    "MEAN_ANOMALY": 281.7849,
    "EPHEMERIS_TYPE": 0,
    "CLASSIFICATION_TYPE": "U",
    "NORAD_CAT_ID": 43437,
    "ELEMENT_SET_NO": 999,
    "REV_AT_EPOCH": 36603,
    "BSTAR": 9.938e-05,
    "MEAN_MOTION_DOT": 1.97e-06,
    "MEAN_MOTION_DDOT": 0
  },
  {
    "OBJECT_NAME": "GAOFEN-5 01",
    "OBJECT_ID": "2018-043A",
    "EPOCH": "2025-05-05T20:53:22.772544",
    "MEAN_MOTION": 14.60127311,
    "ECCENTRICITY": 4.43e-05,
    "INCLINATION": 98.4028,
    "RA_OF_ASC_NODE": 85.4645,
    "ARG_OF_PERICENTER": 246.3619,
    "MEAN_ANOMALY": 113.7534,
    "EPHEMERIS_TYPE": 0,
    "CLASSIFICATION_TYPE": "U",
    "NORAD_CAT_ID": 43461,
    "ELEMENT_SET_NO": 999,
    "REV_AT_EPOCH": 37224,
    "BSTAR": 0.00015361,
    "MEAN_MOTION_DOT": 6.91e-06,
    "MEAN_MOTION_DDOT": 0
  },
  {
    "OBJECT_NAME": "GAOFEN-6",
    "OBJECT_ID": "2018-048A",
    "EPOCH": "2025-05-06T05:02:35.382336",
    "MEAN_MOTION": 14.76615945,
    "ECCENTRICITY": 0.001381,
    "INCLINATION": 97.8243,
    "RA_OF_ASC_NODE": 197.508,
    "ARG_OF_PERICENTER": 52.3056,
    "MEAN_ANOMALY": 307.9405,
    "EPHEMERIS_TYPE": 0,
    "CLASSIFICATION_TYPE": "U",
    "NORAD_CAT_ID": 43484,
    "ELEMENT_SET_NO": 999,
    "REV_AT_EPOCH": 37333,
    "BSTAR": 0.00018534,
    "MEAN_MOTION_DOT": 1.247e-05,
    "MEAN_MOTION_DDOT": 0
  },
  {
    "OBJECT_NAME": "GAOFEN-11 01",
    "OBJECT_ID": "2018-063A",
    "EPOCH": "2025-05-06T04:13:05.632032",
    "MEAN_MOTION": 15.42878408,
    "ECCENTRICITY": 0.0006962,
    "INCLINATION": 97.1819,
    "RA_OF_ASC_NODE": 191.6694,
    "ARG_OF_PERICENTER": 42.1718,
    "MEAN_ANOMALY": 318.0065,
    "EPHEMERIS_TYPE": 0,
    "CLASSIFICATION_TYPE": "U",
    "NORAD_CAT_ID": 43585,
    "ELEMENT_SET_NO": 999,
    "REV_AT_EPOCH": 37735,
    "BSTAR": 0.00034613,
    "MEAN_MOTION_DOT": 0.00015131,
    "MEAN_MOTION_DDOT": 0
  },
  {
    "OBJECT_NAME": "ICESAT-2",
    "OBJECT_ID": "2018-070A",
    "EPOCH": "2025-05-05T21:02:09.121344",
    "MEAN_MOTION": 15.2829067,
    "ECCENTRICITY": 0.0003864,
    "INCLINATION": 91.9919,
    "RA_OF_ASC_NODE": 181.413,
    "ARG_OF_PERICENTER": 11.3464,
    "MEAN_ANOMALY": 348.7871,
    "EPHEMERIS_TYPE": 0,
    "CLASSIFICATION_TYPE": "U",
    "NORAD_CAT_ID": 43613,
    "ELEMENT_SET_NO": 999,
    "REV_AT_EPOCH": 37025,
    "BSTAR": 0.00056505,
    "MEAN_MOTION_DOT": 0.00015579,
    "MEAN_MOTION_DDOT": 0
  },
  {
    "OBJECT_NAME": "HYSIS",
    "OBJECT_ID": "2018-096A",
    "EPOCH": "2025-05-06T04:06:06.538464",
    "MEAN_MOTION": 14.7863604,
    "ECCENTRICITY": 0.0001234,
    "INCLINATION": 98.0326,
    "RA_OF_ASC_NODE": 189.8456,
    "ARG_OF_PERICENTER": 78.8458,
    "MEAN_ANOMALY": 281.2891,
    "EPHEMERIS_TYPE": 0,
    "CLASSIFICATION_TYPE": "U",
    "NORAD_CAT_ID": 43719,
    "ELEMENT_SET_NO": 999,
    "REV_AT_EPOCH": 34733,
    "BSTAR": 0.00025451,
    "MEAN_MOTION_DOT": 1.861e-05,
    "MEAN_MOTION_DDOT": 5.49e-10
  },
  {
    "OBJECT_NAME": "KAZSTSAT",
    "OBJECT_ID": "2018-099AB",
    "EPOCH": "2025-05-06T02:32:22.715808",
    "MEAN_MOTION": 14.98608668,
    "ECCENTRICITY": 0.0006805,
    "INCLINATION": 97.477,
    "RA_OF_ASC_NODE": 170.5254,
    "ARG_OF_PERICENTER": 341.418,
    "MEAN_ANOMALY": 18.6793,
    "EPHEMERIS_TYPE": 0,
    "CLASSIFICATION_TYPE": "U",
    "NORAD_CAT_ID": 43783,
    "ELEMENT_SET_NO": 999,
    "REV_AT_EPOCH": 35031,
    "BSTAR": 0.00012088,
    "MEAN_MOTION_DOT": 1.394e-05,
    "MEAN_MOTION_DDOT": 0
  },
  {
    "OBJECT_NAME": "SAUDISAT 5A",
    "OBJECT_ID": "2018-102A",
    "EPOCH": "2025-05-06T04:07:00.548832",
    "MEAN_MOTION": 15.22705063,
    "ECCENTRICITY": 0.0012431,
    "INCLINATION": 97.3601,
    "RA_OF_ASC_NODE": 190.7263,
    "ARG_OF_PERICENTER": 126.7655,
    "MEAN_ANOMALY": 233.4725,
    "EPHEMERIS_TYPE": 0,
    "CLASSIFICATION_TYPE": "U",
    "NORAD_CAT_ID": 43831,
    "ELEMENT_SET_NO": 999,
    "REV_AT_EPOCH": 35363,
    "BSTAR": 0.00029706,
    "MEAN_MOTION_DOT": 6.87e-05,
    "MEAN_MOTION_DDOT": 0
  },
  {
    "OBJECT_NAME": "SAUDISAT 5B",
    "OBJECT_ID": "2018-102C",
    "EPOCH": "2025-05-06T03:44:21.901056",
    "MEAN_MOTION": 15.23163257,
    "ECCENTRICITY": 0.001308,
    "INCLINATION": 97.3677,
    "RA_OF_ASC_NODE": 193.0654,
    "ARG_OF_PERICENTER": 129.7474,
    "MEAN_ANOMALY": 230.4918,
    "EPHEMERIS_TYPE": 0,
    "CLASSIFICATION_TYPE": "U",
    "NORAD_CAT_ID": 43833,
    "ELEMENT_SET_NO": 999,
    "REV_AT_EPOCH": 35373,
    "BSTAR": 0.00028095,
    "MEAN_MOTION_DOT": 6.584e-05,
    "MEAN_MOTION_DDOT": 0
  },
  {
    "OBJECT_NAME": "GAOFEN-10R",
    "OBJECT_ID": "2019-066A",
    "EPOCH": "2025-05-06T04:32:28.261536",
    "MEAN_MOTION": 14.82559887,
    "ECCENTRICITY": 0.0006618,
    "INCLINATION": 98.002,
    "RA_OF_ASC_NODE": 73.2638,
    "ARG_OF_PERICENTER": 37.2655,
    "MEAN_ANOMALY": 322.9016,
    "EPHEMERIS_TYPE": 0,
    "CLASSIFICATION_TYPE": "U",
    "NORAD_CAT_ID": 44622,
    "ELEMENT_SET_NO": 999,
    "REV_AT_EPOCH": 30206,
    "BSTAR": 0.00028514,
    "MEAN_MOTION_DOT": 2.24e-05,
    "MEAN_MOTION_DDOT": 0
  },
  {
    "OBJECT_NAME": "CARTOSAT-3",
    "OBJECT_ID": "2019-081A",
    "EPOCH": "2025-05-06T04:21:20.368800",
    "MEAN_MOTION": 15.1920469,
    "ECCENTRICITY": 0.0015365,
    "INCLINATION": 97.4834,
    "RA_OF_ASC_NODE": 188.1137,
    "ARG_OF_PERICENTER": 133.5027,
    "MEAN_ANOMALY": 226.7488,
    "EPHEMERIS_TYPE": 0,
    "CLASSIFICATION_TYPE": "U",
    "NORAD_CAT_ID": 44804,
    "ELEMENT_SET_NO": 999,
    "REV_AT_EPOCH": 30162,
    "BSTAR": 0.00031081,
    "MEAN_MOTION_DOT": 6.494e-05,
    "MEAN_MOTION_DDOT": 0
  },
  {
    "OBJECT_NAME": "GAOFEN-12 01",
    "OBJECT_ID": "2019-082A",
    "EPOCH": "2025-05-06T04:59:50.235648",
    "MEAN_MOTION": 14.80361207,
    "ECCENTRICITY": 0.0001297,
    "INCLINATION": 97.8149,
    "RA_OF_ASC_NODE": 138.2378,
    "ARG_OF_PERICENTER": 224.0266,
    "MEAN_ANOMALY": 136.0844,
    "EPHEMERIS_TYPE": 0,
    "CLASSIFICATION_TYPE": "U",
    "NORAD_CAT_ID": 44819,
    "ELEMENT_SET_NO": 999,
    "REV_AT_EPOCH": 29387,
    "BSTAR": 0.00010525,
    "MEAN_MOTION_DOT": 7.52e-06,
    "MEAN_MOTION_DDOT": 0
  },
  {
    "OBJECT_NAME": "CSG-1",
    "OBJECT_ID": "2019-092A",
    "EPOCH": "2025-05-06T03:58:14.942208",
    "MEAN_MOTION": 14.82164838,
    "ECCENTRICITY": 0.0001471,
    "INCLINATION": 97.8877,
    "RA_OF_ASC_NODE": 310.6748,
    "ARG_OF_PERICENTER": 84.0903,
    "MEAN_ANOMALY": 276.0478,
    "EPHEMERIS_TYPE": 0,
    "CLASSIFICATION_TYPE": "U",
    "NORAD_CAT_ID": 44873,
    "ELEMENT_SET_NO": 999,
    "REV_AT_EPOCH": 29118,
    "BSTAR": 0.00012163,
    "MEAN_MOTION_DOT": 9.16e-06,
    "MEAN_MOTION_DDOT": 0
  },
  {
    "OBJECT_NAME": "NEMO-HD",
    "OBJECT_ID": "2020-061F",
    "EPOCH": "2025-05-06T04:46:24.505536",
    "MEAN_MOTION": 15.3547009,
    "ECCENTRICITY": 0.000285,
    "INCLINATION": 97.2472,
    "RA_OF_ASC_NODE": 188.5442,
    "ARG_OF_PERICENTER": 89.9561,
    "MEAN_ANOMALY": 270.201,
    "EPHEMERIS_TYPE": 0,
    "CLASSIFICATION_TYPE": "U",
    "NORAD_CAT_ID": 46277,
    "ELEMENT_SET_NO": 999,
    "REV_AT_EPOCH": 25935,
    "BSTAR": 0.00032838,
    "MEAN_MOTION_DOT": 0.00011244,
    "MEAN_MOTION_DDOT": 0
  }
]